{
  "norad_id": 68539,
  "name": "TACHELES",
  "history": [
    {
      "epoch": "2026-04-02T13:12:59.999616Z",
      "apogee_km": 70247.25406620756,
      "perigee_km": 149.21622481737813,
      "latitude_deg": -27.888917522707064,
      "longitude_deg": -130.6147600218937,
      "height_km": 69844.05610781463,
      "semi_major_axis_km": 41576.372145512476,
      "eccentricity": 0.8430033,
      "inclination_deg": 28.3448,
      "raan_deg": 359.8421,
      "arg_perigee_deg": 77.7942,
      "mean_anomaly_deg": 194.3023,
      "mean_motion_rev_day": 1.02407762
    }
  ]
}