{"fetched_at":"2026-04-16T06:04:01Z","count":5425,"tles":[{"name":"TACHELES","line1":"1 68539U 26069B   26092.55069444 -.00190496  11727-5 -71298-2 0  9993","line2":"2 68539  28.3448 359.8421 8430033  77.7942 194.3023  1.02407762    02","category":"Other"}]}